STARLINK-5456           
1 55667U 23021AR  26068.59770281 -.00001008  00000+0 -76718-4 0  9991
2 55667  70.0012 164.5749 0002996 263.0991  96.9827 14.98329684169273
KORSAT-2                
1 62377U 24247A   26068.41070335  .00005163  00000+0  43498-3 0  9994
2 62377  45.4085 225.0391 0009773  57.7708 302.4117 14.99271316 66592
